XRISM                   
1 57800U 23137A   23270.63220047  .00005763  00000+0  46984-3 0  9998
2 57800  31.0027 245.9513 0009975 122.3938 237.7663 14.98000278  3097
